[{"OBJECT_NAME":"STARLINK-30120","OBJECT_ID":"2023-079B","EPOCH":"2026-03-09T22:00:01.999584","MEAN_MOTION":15.17882096,"ECCENTRICITY":0.0002013,"INCLINATION":42.9994,"RA_OF_ASC_NODE":105.6157,"ARG_OF_PERICENTER":280.1229,"MEAN_ANOMALY":118.6442,"EPHEMERIS_TYPE":0,"CLASSIFICATION_TYPE":"U","NORAD_CAT_ID":56824,"ELEMENT_SET_NO":999,"REV_AT_EPOCH":578,"BSTAR":0.059515571,"MEAN_MOTION_DOT":0.01333909,"MEAN_MOTION_DDOT":0},{"OBJECT_NAME":"OKEAN-1","OBJECT_ID":"1988-056A","EPOCH":"2026-03-09T21:19:04.260000","MEAN_MOTION":15.31672069,"ECCENTRICITY":0.00129431,"INCLINATION":82.4671,"RA_OF_ASC_NODE":262.7586,"ARG_OF_PERICENTER":168.0696,"MEAN_ANOMALY":192.0855,"EPHEMERIS_TYPE":0,"CLASSIFICATION_TYPE":"U","NORAD_CAT_ID":19274,"ELEMENT_SET_NO":999,"REV_AT_EPOCH":3511,"BSTAR":0.00038371192,"MEAN_MOTION_DOT":0.00011798,"MEAN_MOTION_DDOT":0}]
